NORAD_CAT_ID,OBJECT_NAME,OBJECT_TYPE,EPOCH,MEAN_MOTION,ECCENTRICITY,INCLINATION,RA_OF_ASC_NODE,ARG_OF_PERICENTER,MEAN_ANOMALY,BSTAR,MEAN_MOTION_DOT,MEAN_MOTION_DDOT,TLE_LINE0,TLE_LINE1,TLE_LINE2,SEMIMAJOR_AXIS,PERIOD,APOGEE,PERIGEE,DECAYED
55287.0,STARLINK-5341,PAYLOAD,2023-12-03 01:20:51,14.98310269,0.0002986,69.9992,291.4122,257.6478,102.4347,-5.233e-05,-7.17e-06,0.0,0 STARLINK-5341,1 55287U 23010U   23337.05614780 -.00000717  00000-0 -52330-4 0  9996,2 55287  69.9992 291.4122 0002986 257.6478 102.4347 14.98310269 49476,6950.254,96.108,574.194,570.044,0.0
55287.0,STARLINK-5341,PAYLOAD,2023-12-03 07:45:23,14.9831018,0.0003063,69.9983,290.7358,264.2037,95.8772,-4.0413e-05,-5.75e-06,0.0,0 STARLINK-5341,1 55287U 23010U   23337.32319064 -.00000575  00000-0 -40413-4 0  9994,2 55287  69.9983 290.7358 0003063 264.2037  95.8772 14.98310180 49829,6950.254,96.108,574.248,569.99,0.0
55287.0,STARLINK-5341,PAYLOAD,2023-12-04 02:59:00,14.98327583,0.0002547,69.9998,288.7184,259.0632,101.024,-0.00015783,-1.975e-05,0.0,0 STARLINK-5341,1 55287U 23010U   23338.12430764 -.00001975  00000-0 -15783-3 0  9990,2 55287  69.9998 288.7184 0002547 259.0632 101.0240 14.98327583 49632,6950.2,96.107,573.836,570.295,0.0
55287.0,STARLINK-5341,PAYLOAD,2023-12-04 06:11:16,14.98330234,0.0002401,70.0004,288.3841,245.5032,114.5877,-0.00012728,-1.611e-05,0.0,0 STARLINK-5341,1 55287U 23010U   23338.25782557 -.00001611  00000-0 -12728-3 0  9997,2 55287  70.0004 288.3841 0002401 245.5032 114.5877 14.98330234 49960,6950.192,96.107,573.726,570.388,0.0
55287.0,STARLINK-5341,PAYLOAD,2023-12-05 03:01:00,14.98325803,0.0002449,69.9995,286.1905,263.0349,97.0532,0.0004115,4.82e-05,0.0,0 STARLINK-5341,1 55287U 23010U   23339.12569794  .00004820  00000-0  41150-3 0  9994,2 55287  69.9995 286.1905 0002449 263.0349  97.0532 14.98325803 49780,6950.206,96.107,573.773,570.369,0.0
55287.0,STARLINK-5341,PAYLOAD,2023-12-05 06:13:16,14.98329899,0.0002144,70.0007,285.8558,255.518,104.5742,0.00045019,5.283e-05,0.0,0 STARLINK-5341,1 55287U 23010U   23339.25921593  .00005283  00000-0  45019-3 0  9999,2 55287  70.0007 285.8558 0002144 255.5180 104.5742 14.98329899 50113,6950.193,96.107,573.548,570.568,0.0
55287.0,STARLINK-5341,PAYLOAD,2023-12-05 20:38:28,14.98324447,0.0001983,70.002,284.3395,273.4697,86.6235,0.00046399,5.447e-05,0.0,0 STARLINK-5341,1 55287U 23010U   23339.86005674  .00005447  00000-0  46399-3 0  9993,2 55287  70.0020 284.3395 0001983 273.4697  86.6235 14.98324447 50204,6950.21,96.107,573.453,570.697,0.0
55287.0,STARLINK-5341,PAYLOAD,2023-12-06 04:39:09,14.98332915,0.0002481,70.0,283.4998,250.4201,109.6691,0.00011671,1.3e-05,0.0,0 STARLINK-5341,1 55287U 23010U   23340.19385832  .00001300  00000-0  11671-3 0  9997,2 55287  70.0000 283.4998 0002481 250.4201 109.6691 14.98332915 49941,6950.184,96.107,573.773,570.325,0.0
55287.0,STARLINK-5341,PAYLOAD,2023-12-06 06:15:17,14.98332079,0.0002369,70.0001,283.3314,254.6945,105.3953,0.00011577,1.289e-05,0.0,0 STARLINK-5341,1 55287U 23010U   23340.26061912  .00001289  00000-0  11577-3 0  9996,2 55287  70.0001 283.3314 0002369 254.6945 105.3953 14.98332079 50261,6950.186,96.107,573.698,570.405,0.0
55287.0,STARLINK-5341,PAYLOAD,2023-12-06 22:16:38,14.98334565,0.0002472,69.9998,281.6488,254.3681,105.7205,-7.6119e-05,-1.001e-05,0.0,0 STARLINK-5341,1 55287U 23010U   23340.92821800 -.00001001  00000-0 -76119-4 0  9997,2 55287  69.9998 281.6488 0002472 254.3681 105.7205 14.98334565 50362,6950.179,96.107,573.762,570.326,0.0
55287.0,STARLINK-5341,PAYLOAD,2023-12-07 04:41:10,14.98335168,0.000247,69.9997,280.9751,259.531,100.5571,-0.00011954,-1.519e-05,0.0,0 STARLINK-5341,1 55287U 23010U   23341.19525759 -.00001519  00000-0 -11954-3 0  9990,2 55287  69.9997 280.9751 0002470 259.5310 100.5571 14.98335168 50099,6950.177,96.107,573.759,570.325,0.0
55287.0,STARLINK-5341,PAYLOAD,2023-12-07 06:17:18,14.98335269,0.0002505,69.9996,280.8061,259.631,100.4567,-0.00012997,-1.644e-05,0.0,0 STARLINK-5341,1 55287U 23010U   23341.26201741 -.00001644  00000-0 -12997-3 0  9997,2 55287  69.9996 280.8061 0002505 259.6310 100.4567 14.98335269 50413,6950.177,96.107,573.783,570.301,0.0
55287.0,STARLINK-5341,PAYLOAD,2023-12-08 06:19:19,14.98329141,0.0002431,69.9999,278.2804,262.8485,97.2398,6.0444e-05,6.28e-06,0.0,0 STARLINK-5341,1 55287U 23010U   23342.26341534  .00000628  00000-0  60444-4 0  9993,2 55287  69.9999 278.2804 0002431 262.8485  97.2398 14.98329141 50258,6950.196,96.107,573.75,570.371,0.0
55287.0,STARLINK-5341,PAYLOAD,2023-12-08 19:08:23,14.98331496,0.0002473,69.9995,276.9331,264.6641,95.4235,0.00010079,1.11e-05,0.0,0 STARLINK-5341,1 55287U 23010U   23342.79749194  .00001110  00000-0  10079-3 0  9990,2 55287  69.9995 276.9331 0002473 264.6641  95.4235 14.98331496 50643,6950.188,96.107,573.772,570.334,0.0
55287.0,STARLINK-5341,PAYLOAD,2023-12-09 04:45:11,14.98333747,0.000241,69.9996,275.9232,264.0315,96.0569,0.00012006,1.34e-05,0.0,0 STARLINK-5341,1 55287U 23010U   23343.19804959  .00001340  00000-0  12006-3 0  9993,2 55287  69.9996 275.9232 0002410 264.0315  96.0569 14.98333747 50701,6950.181,96.107,573.721,570.371,0.0
55287.0,STARLINK-5341,PAYLOAD,2023-12-09 19:10:24,14.98332352,0.0002026,70.0008,274.4068,260.4956,99.5974,6.4098e-05,6.72e-06,0.0,0 STARLINK-5341,1 55287U 23010U   23343.79889126  .00000672  00000-0  64098-4 0  9994,2 55287  70.0008 274.4068 0002026 260.4956  99.5974 14.98332352 50487,6950.186,96.107,573.459,570.643,0.0
55287.0,STARLINK-5341,PAYLOAD,2023-12-10 22:24:41,14.98328178,0.0002318,69.9999,271.548,251.1439,108.9468,-4.7964e-05,-6.65e-06,0.0,0 STARLINK-5341,1 55287U 23010U   23344.93381516 -.00000665  00000-0 -47964-4 0  9998,2 55287  69.9999 271.5480 0002318 251.1439 108.9468 14.98328178 50963,6950.199,96.107,573.675,570.452,0.0
55287.0,STARLINK-5341,PAYLOAD,2023-12-11 04:49:13,14.9832727,0.0002287,70.0,270.8748,251.1252,108.9659,-5.2533e-05,-7.2e-06,0.0,0 STARLINK-5341,1 55287U 23010U   23345.20085612 -.00000720  00000-0 -52533-4 0  9997,2 55287  70.0000 270.8748 0002287 251.1252 108.9659 14.98327270 50690,6950.201,96.107,573.656,570.477,0.0
55287.0,STARLINK-5341,PAYLOAD,2023-12-11 22:26:42,14.9832933,0.0002672,69.9988,269.0224,266.8333,93.252,6.4934e-05,6.82e-06,0.0,0 STARLINK-5341,1 55287U 23010U   23345.93521177  .00000682  00000-0  64934-4 0  9991,2 55287  69.9988 269.0224 0002672 266.8333  93.2520 14.98329330 51112,6950.195,96.107,573.917,570.203,0.0
55287.0,STARLINK-5341,PAYLOAD,2023-12-12 03:15:06,14.98332676,0.0002503,69.9991,268.5177,259.7393,100.3484,9.4602e-05,1.036e-05,0.0,0 STARLINK-5341,1 55287U 23010U   23346.13548863  .00001036  00000-0  94602-4 0  9994,2 55287  69.9991 268.5177 0002503 259.7393 100.3484 14.98332676 50831,6950.185,96.107,573.789,570.31,0.0
55287.0,STARLINK-5341,PAYLOAD,2023-12-12 04:51:14,14.9833424,0.0002429,69.9997,268.3511,254.3821,105.707,0.00011331,1.259e-05,0.0,0 STARLINK-5341,1 55287U 23010U   23346.20224729  .00001259  00000-0  11331-3 0  9998,2 55287  69.9997 268.3511 0002429 254.3821 105.7070 14.98334240 51156,6950.18,96.107,573.733,570.357,0.0
55287.0,STARLINK-5341,PAYLOAD,2023-12-12 22:28:42,14.98339386,0.0002479,69.9994,266.4992,256.7176,103.3706,0.00015729,1.785e-05,0.0,0 STARLINK-5341,1 55287U 23010U   23346.93660005  .00001785  00000-0  15729-3 0  9998,2 55287  69.9994 266.4992 0002479 256.7176 103.3706 14.98339386 51267,6950.164,96.106,573.752,570.306,0.0
55287.0,STARLINK-5341,PAYLOAD,2023-12-13 03:17:06,14.98340949,0.0002466,69.9995,265.995,255.7599,104.3286,0.00015645,1.775e-05,0.0,0 STARLINK-5341,1 55287U 23010U   23347.13687792  .00001775  00000-0  15645-3 0  9999,2 55287  69.9995 265.9950 0002466 255.7599 104.3286 14.98340949 50989,6950.159,96.106,573.738,570.31,0.0
55287.0,STARLINK-5341,PAYLOAD,2023-12-13 04:53:14,14.98339433,0.0002391,69.9995,265.8258,254.0316,106.058,0.00015477,1.755e-05,0.0,0 STARLINK-5341,1 55287U 23010U   23347.20363832  .00001755  00000-0  15477-3 0  9994,2 55287  69.9995 265.8258 0002391 254.0316 106.0580 14.98339433 51304,6950.164,96.106,573.691,570.367,0.0
55287.0,STARLINK-5341,PAYLOAD,2023-12-13 19:18:27,14.98329975,0.00019,70.0013,264.3126,228.5403,131.5593,7.0537e-05,7.49e-06,0.0,0 STARLINK-5341,1 55287U 23010U   23347.80448500  .00000749  00000-0  70537-4 0  9997,2 55287  70.0013 264.3126 0001900 228.5403 131.5593 14.98329975 51086,6950.193,96.107,573.379,570.737,0.0
55287.0,STARLINK-5341,PAYLOAD,2023-12-13 22:30:43,14.98328857,0.0002388,70.0009,263.9772,223.5322,136.5649,2.7374e-05,2.34e-06,0.0,0 STARLINK-5341,1 55287U 23010U   23347.93800618  .00000234  00000-0  27374-4 0  9993,2 55287  70.0009 263.9772 0002388 223.5322 136.5649 14.98328857 51411,6950.196,96.107,573.721,570.402,0.0
55287.0,STARLINK-5341,PAYLOAD,2023-12-14 04:55:16,14.98323229,0.0002283,70.0002,263.302,244.0051,116.0873,-3.9604e-05,-5.65e-06,0.0,0 STARLINK-5341,1 55287U 23010U   23348.20505255 -.00000565  00000-0 -39604-4 0  9991,2 55287  70.0002 263.3020 0002283 244.0051 116.0873 14.98323229 51145,6950.214,96.107,573.666,570.492,0.0
55287.0,STARLINK-5341,PAYLOAD,2023-12-14 20:56:36,14.98335068,0.0002445,69.999,261.6128,272.2233,87.8646,-8.6862e-06,-1.97e-06,0.0,0 STARLINK-5341,1 55287U 23010U   23348.87264254 -.00000197  00000-0 -86862-5 0  9995,2 55287  69.9990 261.6128 0002445 272.2233  87.8646 14.98335068 51241,6950.177,96.107,573.742,570.343,0.0
55287.0,STARLINK-5341,PAYLOAD,2023-12-14 22:32:43,14.98346931,0.0002066,70.0008,261.4493,227.2057,132.8929,0.00011847,1.322e-05,0.0,0 STARLINK-5341,1 55287U 23010U   23348.93939032  .00001322  00000-0  11847-3 0  9993,2 55287  70.0008 261.4493 0002066 227.2057 132.8929 14.98346931 51561,6950.141,96.106,573.441,570.57,0.0
55287.0,STARLINK-5341,PAYLOAD,2023-12-15 03:21:07,14.98342754,0.0001943,70.0017,260.9451,221.5769,138.5242,9.0435e-05,9.87e-06,0.0,0 STARLINK-5341,1 55287U 23010U   23349.13967277  .00000987  00000-0  90435-4 0  9995,2 55287  70.0017 260.9451 0001943 221.5769 138.5242 14.98342754 51288,6950.153,96.106,573.369,570.668,0.0
